[{"OBJECT_NAME":"STARLINK-33637","OBJECT_ID":"2025-070L","EPOCH":"2026-03-09T21:36:31.448736","MEAN_MOTION":15.27598083,"ECCENTRICITY":0.00020143,"INCLINATION":43.0028,"RA_OF_ASC_NODE":259.0427,"ARG_OF_PERICENTER":285.6269,"MEAN_ANOMALY":74.436,"EPHEMERIS_TYPE":0,"CLASSIFICATION_TYPE":"U","NORAD_CAT_ID":63470,"ELEMENT_SET_NO":999,"REV_AT_EPOCH":5300,"BSTAR":0.00096345401,"MEAN_MOTION_DOT":0.0002636,"MEAN_MOTION_DDOT":0},{"OBJECT_NAME":"PEGASUS R\/B","OBJECT_ID":"2007-015B","EPOCH":"2026-03-09T10:58:33.801024","MEAN_MOTION":15.26741121,"ECCENTRICITY":0.00105976,"INCLINATION":97.9168,"RA_OF_ASC_NODE":31.3919,"ARG_OF_PERICENTER":317.6341,"MEAN_ANOMALY":42.4077,"EPHEMERIS_TYPE":0,"CLASSIFICATION_TYPE":"U","NORAD_CAT_ID":31305,"ELEMENT_SET_NO":999,"REV_AT_EPOCH":3383,"BSTAR":0.00044093522,"MEAN_MOTION_DOT":0.00011537,"MEAN_MOTION_DDOT":0}]
